NORAD_CAT_ID,OBJECT_NAME,OBJECT_TYPE,EPOCH,MEAN_MOTION,ECCENTRICITY,INCLINATION,RA_OF_ASC_NODE,ARG_OF_PERICENTER,MEAN_ANOMALY,BSTAR,MEAN_MOTION_DOT,MEAN_MOTION_DDOT,TLE_LINE0,TLE_LINE1,TLE_LINE2,SEMIMAJOR_AXIS,PERIOD,APOGEE,PERIGEE,DECAYED
52537.0,STARLINK-3897,PAYLOAD,2024-01-09 13:44:42,15.08850157,0.0001277,53.2172,75.9018,91.3689,268.745,0.00010639,1.406e-05,0.0,0 STARLINK-3897,1 52537U 22051E   24009.57271988  .00001406  00000-0  10639-3 0  9997,2 52537  53.2172  75.9018 0001277  91.3689 268.7450 15.08850157 92167,6917.849,95.437,540.598,538.831,0.0
52537.0,STARLINK-3897,PAYLOAD,2024-01-10 04:03:12,15.08836015,0.000145,53.2172,73.227,97.1271,262.9886,-1.3258e-05,-4.99e-06,0.0,0 STARLINK-3897,1 52537U 22051E   24010.16889318 -.00000499  00000-0 -13258-4 0  9990,2 52537  53.2172  73.2270 0001450  97.1271 262.9886 15.08836015 92326,6917.893,95.438,540.761,538.754,0.0
52537.0,STARLINK-3897,PAYLOAD,2024-01-10 10:24:44,15.08839169,0.0001633,53.2173,72.0393,90.7813,269.3366,8.9014e-06,-1.46e-06,0.0,0 STARLINK-3897,1 52537U 22051E   24010.43385050 -.00000146  00000-0  89014-5 0  9996,2 52537  53.2173  72.0393 0001633  90.7813 269.3366 15.08839169 92297,6917.883,95.438,540.878,538.618,0.0
52537.0,STARLINK-3897,PAYLOAD,2024-01-10 13:35:30,15.0884454,0.0001598,53.2175,71.4429,98.0154,262.1019,9.8457e-06,-1.31e-06,0.0,0 STARLINK-3897,1 52537U 22051E   24010.56632661 -.00000131  00000-0  98457-5 0  9998,2 52537  53.2175  71.4429 0001598  98.0154 262.1019 15.08844540 92386,6917.867,95.437,540.837,538.626,0.0
52537.0,STARLINK-3897,PAYLOAD,2024-01-11 10:15:31,15.08846152,0.0001673,53.2182,67.5804,96.4515,263.6668,6.7403e-05,7.85e-06,0.0,0 STARLINK-3897,1 52537U 22051E   24011.42744239  .00000785  00000-0  67403-4 0  9999,2 52537  53.2182  67.5804 0001673  96.4515 263.6668 15.08846152 92448,6917.862,95.437,540.884,538.569,0.0
52537.0,STARLINK-3897,PAYLOAD,2024-01-12 10:06:19,15.08831521,0.0001452,53.2197,63.1209,93.9822,266.1336,8.3045e-06,-1.56e-06,0.0,0 STARLINK-3897,1 52537U 22051E   24012.42105441 -.00000156  00000-0  83045-5 0  9990,2 52537  53.2197  63.1209 0001452  93.9822 266.1336 15.08831521 92661,6917.906,95.438,540.776,538.767,0.0
52537.0,STARLINK-3897,PAYLOAD,2024-01-13 08:21:42,15.08837466,0.0001762,53.2193,58.9586,108.112,252.0064,1.2559e-05,-8.8e-07,0.0,0 STARLINK-3897,1 52537U 22051E   24013.34841368 -.00000088  00000-0  12559-4 0  9992,2 52537  53.2193  58.9586 0001762 108.1120 252.0064 15.08837466 92803,6917.888,95.438,540.972,538.534,0.0
52537.0,STARLINK-3897,PAYLOAD,2024-01-14 09:47:53,15.08835192,0.0001739,53.2191,54.1998,105.645,254.4734,9.9854e-05,1.301e-05,0.0,0 STARLINK-3897,1 52537U 22051E   24014.40825640  .00001301  00000-0  99854-4 0  9996,2 52537  53.2191  54.1998 0001739 105.6450 254.4734 15.08835192 92969,6917.895,95.438,540.963,538.557,0.0
52537.0,STARLINK-3897,PAYLOAD,2024-01-15 11:14:02,15.08849278,0.0001712,53.2188,49.4395,104.8479,255.2702,0.00013311,1.832e-05,0.0,0 STARLINK-3897,1 52537U 22051E   24015.46808865  .00001832  00000-0  13311-3 0  9995,2 52537  53.2188  49.4395 0001712 104.8479 255.2702 15.08849278 93129,6917.852,95.437,540.901,538.533,0.0
52537.0,STARLINK-3897,PAYLOAD,2024-01-16 11:04:50,15.08840035,0.0001718,53.2189,44.9744,103.7426,256.3758,4.7284e-05,4.65e-06,0.0,0 STARLINK-3897,1 52537U 22051E   24016.46169924  .00000465  00000-0  47284-4 0  9990,2 52537  53.2189  44.9744 0001718 103.7426 256.3758 15.08840035 93275,6917.88,95.438,540.934,538.557,0.0
52537.0,STARLINK-3897,PAYLOAD,2024-01-17 07:44:50,15.08865714,0.0001933,53.2199,41.1076,69.2289,290.8911,0.00015788,2.227e-05,0.0,0 STARLINK-3897,1 52537U 22051E   24017.32280177  .00002227  00000-0  15788-3 0  9991,2 52537  53.2199  41.1076 0001933  69.2289 290.8911 15.08865714 93405,6917.802,95.436,541.004,538.33,0.0
52537.0,STARLINK-3897,PAYLOAD,2024-01-18 04:24:52,15.0884134,0.0001562,53.2187,37.2416,102.2831,257.8336,4.3976e-05,4.12e-06,0.0,0 STARLINK-3897,1 52537U 22051E   24018.18393752  .00000412  00000-0  43976-4 0  9995,2 52537  53.2187  37.2416 0001562 102.2831 257.8336 15.08841340 93532,6917.876,95.437,540.822,538.661,0.0
52537.0,STARLINK-3897,PAYLOAD,2024-01-18 07:35:38,15.08838883,0.0001674,53.2195,36.6457,118.7212,241.3948,7.0479e-06,-1.76e-06,0.0,0 STARLINK-3897,1 52537U 22051E   24018.31641891 -.00000176  00000-0  70479-5 0  9997,2 52537  53.2195  36.6457 0001674 118.7212 241.3948 15.08838883 93487,6917.884,95.438,540.907,538.591,0.0
52537.0,STARLINK-3897,PAYLOAD,2024-01-19 10:37:11,15.0884853,0.0001721,53.218,31.5918,108.0573,252.0607,3.5711e-05,2.8e-06,0.0,0 STARLINK-3897,1 52537U 22051E   24019.44249396  .00000280  00000-0  35711-4 0  9990,2 52537  53.2180  31.5918 0001721 108.0573 252.0607 15.08848530 93720,6917.854,95.437,540.91,538.529,0.0
52537.0,STARLINK-3897,PAYLOAD,2024-01-20 07:17:11,15.08846071,0.0001555,53.2181,27.7253,110.6827,249.4332,0.00016593,2.354e-05,0.0,0 STARLINK-3897,1 52537U 22051E   24020.30360841  .00002354  00000-0  16593-3 0  9996,2 52537  53.2181  27.7253 0001555 110.6827 249.4332 15.08846071 93785,6917.862,95.437,540.803,538.651,0.0
52537.0,STARLINK-3897,PAYLOAD,2024-01-20 23:11:04,15.08837126,0.0001774,53.2193,24.7586,116.9625,243.1549,6.3808e-08,-2.87e-06,0.0,0 STARLINK-3897,1 52537U 22051E   24020.96602102 -.00000287  00000-0  63808-7 0  9996,2 52537  53.2193  24.7586 0001774 116.9625 243.1549 15.08837126 93885,6917.889,95.438,540.981,538.527,0.0
52537.0,STARLINK-3897,PAYLOAD,2024-01-21 03:57:14,15.08832259,0.0001687,53.2185,23.8625,106.9573,253.1605,-3.7699e-05,-8.88e-06,0.0,0 STARLINK-3897,1 52537U 22051E   24021.16474647 -.00000888  00000-0 -37699-4 0  9994,2 52537  53.2185  23.8625 0001687 106.9573 253.1605 15.08832259 93981,6917.904,95.438,540.936,538.602,0.0
52537.0,STARLINK-3897,PAYLOAD,2024-01-21 05:32:37,15.08832989,0.0001523,53.2177,23.5648,91.6699,268.4468,-4.3839e-05,-9.85e-06,0.0,0 STARLINK-3897,1 52537U 22051E   24021.23098773 -.00000985  00000-0 -43839-4 0  9995,2 52537  53.2177  23.5648 0001523  91.6699 268.4468 15.08832989 93922,6917.902,95.438,540.82,538.713,0.0
52537.0,STARLINK-3897,PAYLOAD,2024-01-21 23:01:51,15.08831206,0.0001549,53.2181,20.2938,110.9532,249.1626,-1.3584e-05,-5.04e-06,0.0,0 STARLINK-3897,1 52537U 22051E   24021.95962953 -.00000504  00000-0 -13584-4 0  9995,2 52537  53.2181  20.2938 0001549 110.9532 249.1626 15.08831206 94038,6917.907,95.438,540.844,538.701,0.0
52537.0,STARLINK-3897,PAYLOAD,2024-01-22 03:48:00,15.08841448,0.0001465,53.2184,19.4044,91.3389,268.7771,-2.1351e-06,-3.22e-06,0.0,0 STARLINK-3897,1 52537U 22051E   24022.15834396 -.00000322  00000-0 -21351-5 0  9997,2 52537  53.2184  19.4044 0001465  91.3389 268.7771 15.08841448 94136,6917.876,95.437,540.754,538.727,0.0
52537.0,STARLINK-3897,PAYLOAD,2024-01-22 05:23:23,15.08843745,0.0001505,53.2184,19.1069,93.3961,266.7204,1.9832e-05,2.8e-07,0.0,0 STARLINK-3897,1 52537U 22051E   24022.22458219  .00000028  00000-0  19832-4 0  9992,2 52537  53.2184  19.1069 0001505  93.3961 266.7204 15.08843745 94077,6917.869,95.437,540.775,538.693,0.0
52537.0,STARLINK-3897,PAYLOAD,2024-01-23 03:38:48,15.08832481,0.0001596,53.2184,14.9444,90.7272,269.3903,0.00012346,1.677e-05,0.0,0 STARLINK-3897,1 52537U 22051E   24023.15194823  .00001677  00000-0  12346-3 0  9996,2 52537  53.2184  14.9444 0001596  90.7272 269.3903 15.08832481 94286,6917.903,95.438,540.872,538.664,0.0
52537.0,STARLINK-3897,PAYLOAD,2024-01-23 06:49:33,15.0886505,0.0001109,53.2181,14.3524,57.9782,302.1318,-0.00023272,-3.992e-05,0.0,0 STARLINK-3897,1 52537U 22051E   24023.28441743 -.00003992  00000-0 -23272-3 0  9990,2 52537  53.2181  14.3524 0001109  57.9782 302.1318 15.08865050 94304,6917.804,95.436,540.436,538.902,0.0
52537.0,STARLINK-3897,PAYLOAD,2024-01-24 03:29:35,15.08842755,0.0001629,53.2186,10.4831,70.8685,289.2484,1.0387e-05,-1.23e-06,0.0,0 STARLINK-3897,1 52537U 22051E   24024.14554897 -.00000123  00000-0  10387-4 0  9997,2 52537  53.2186  10.4831 0001629  70.8685 289.2484 15.08842755 94430,6917.872,95.437,540.864,538.61,0.0
52537.0,STARLINK-3897,PAYLOAD,2024-01-24 06:40:21,15.08839864,0.0001736,53.2193,9.8897,74.875,285.2434,9.899e-05,1.288e-05,0.0,0 STARLINK-3897,1 52537U 22051E   24024.27802956  .00001288  00000-0  98990-4 0  9991,2 52537  53.2193   9.8897 0001736  74.8750 285.2434 15.08839864 94380,6917.881,95.438,540.947,538.545,0.0
52537.0,STARLINK-3897,PAYLOAD,2024-01-25 04:55:45,15.08844234,0.0002134,53.2201,5.7228,59.2097,300.9105,6.1673e-05,6.94e-06,0.0,0 STARLINK-3897,1 52537U 22051E   24025.20538815  .00000694  00000-0  61673-4 0  9993,2 52537  53.2201   5.7228 0002134  59.2097 300.9105 15.08844234 94597,6917.867,95.437,541.209,538.256,0.0
52537.0,STARLINK-3897,PAYLOAD,2024-01-26 04:46:32,15.08843537,0.000144,53.2181,1.2656,82.4774,277.6382,5.8507e-05,6.43e-06,0.0,0 STARLINK-3897,1 52537U 22051E   24026.19898637  .00000643  00000-0  58507-4 0  9999,2 52537  53.2181   1.2656 0001440  82.4774 277.6382 15.08843537 94670,6917.87,95.437,540.731,538.738,0.0
52537.0,STARLINK-3897,PAYLOAD,2024-01-27 03:01:56,15.08843302,0.0001444,53.2177,357.0999,76.7449,283.3705,-1.6262e-05,-5.47e-06,0.0,0 STARLINK-3897,1 52537U 22051E   24027.12634942 -.00000547  00000-0 -16262-4 0  9997,2 52537  53.2177 357.0999 0001444  76.7449 283.3705 15.08843302 94882,6917.87,95.437,540.734,538.736,0.0
52537.0,STARLINK-3897,PAYLOAD,2024-01-27 04:37:19,15.08847511,0.000173,53.2197,356.8029,111.2865,248.8312,1.0881e-05,-1.15e-06,0.0,0 STARLINK-3897,1 52537U 22051E   24027.19258392 -.00000115  00000-0  10881-4 0  9996,2 52537  53.2197 356.8029 0001730 111.2865 248.8312 15.08847511 94820,6917.857,95.437,540.919,538.526,0.0
52537.0,STARLINK-3897,PAYLOAD,2024-01-27 22:06:34,15.08833635,0.0001713,53.2205,353.5337,109.1588,250.959,3.6086e-05,2.86e-06,0.0,0 STARLINK-3897,1 52537U 22051E   24027.92123052  .00000286  00000-0  36086-4 0  9994,2 52537  53.2205 353.5337 0001713 109.1588 250.9590 15.08833635 94931,6917.9,95.438,540.95,538.58,0.0
